[
    {
        "Altitude(m)": 612513.9516678256,
        "Argument of Periapsis(deg)": 0.0,
        "Eccentricity": 0.0,
        "Inclination(deg)": 60.0,
        "Latitude(deg)": -28.1360281587741,
        "Longitude(deg)": -127.08692156459556,
        "Mean Anomaly(deg)": 212.7273,
        "RAAN(deg)": 135.0,
        "Satellite Name": "Test1 607",
        "Satellite Number": 607,
        "Semi-Major Axis(m)": 6980739.136638005,
        "Time(s)": 0
    },
    {
        "Altitude(m)": 612708.32001259,
        "Argument of Periapsis(deg)": 0.00010418945913296404,
        "Eccentricity": 0.0,
        "Inclination(deg)": 60.0,
        "Latitude(deg)": -28.64776773966272,
        "Longitude(deg)": -126.7296917551045,
        "Mean Anomaly(deg)": 213.34740614546186,
        "RAAN(deg)": 134.99957995086024,
        "Satellite Name": "Test1 607",
        "Satellite Number": 607,
        "Semi-Major Axis(m)": 6980739.136638005,
        "Time(s)": 10
    }
]